{
  "type": "FeatureCollection",
  "features": [
    {
      "type": "Feature",
      "properties": {
        "name": "Пример 2: потенциальных единиц 27677",
        "area_ha": 514.47,
        "units": 27677,
        "r_tco2e": 52332.8,
        "h_over_r": 0.4778,
        "baseline_rate_tc_ha_yr": -8.3725,
        "c_2015_tc_ha": 81.062,
        "c_2019_tc_ha": 47.572,
        "note": "Окно найдено перебором по продукту ESA CCI Biomass v7.0. Базовая линия выведена по формуле кейса из собственной истории 2015→2019, как её выводит сервис для любого загруженного контура."
      },
      "geometry": {
        "type": "Polygon",
        "coordinates": [
          [
            [
              41.992,
              59.223111
            ],
            [
              42.020444,
              59.223111
            ],
            [
              42.020444,
              59.251556
            ],
            [
              41.992,
              59.251556
            ],
            [
              41.992,
              59.223111
            ]
          ]
        ]
      }
    }
  ]
}