{
  "type": "FeatureCollection",
  "features": [
    {
      "type": "Feature",
      "properties": {
        "name": "Пример 4: потенциальных единиц 21983",
        "area_ha": 513.19,
        "units": 21983,
        "r_tco2e": 50360.4,
        "h_over_r": 0.5864,
        "baseline_rate_tc_ha_yr": -5.9487,
        "c_2015_tc_ha": 75.157,
        "c_2019_tc_ha": 51.362,
        "note": "Окно найдено перебором по продукту ESA CCI Biomass v7.0. Базовая линия выведена по формуле кейса из собственной истории 2015→2019, как её выводит сервис для любого загруженного контура."
      },
      "geometry": {
        "type": "Polygon",
        "coordinates": [
          [
            [
              42.205333,
              59.308444
            ],
            [
              42.233778,
              59.308444
            ],
            [
              42.233778,
              59.336889
            ],
            [
              42.205333,
              59.336889
            ],
            [
              42.205333,
              59.308444
            ]
          ]
        ]
      }
    }
  ]
}