{
  "type": "FeatureCollection",
  "features": [
    {
      "type": "Feature",
      "properties": {
        "name": "Пример 5: потенциальных единиц 21186",
        "area_ha": 514.47,
        "units": 21186,
        "r_tco2e": 41550.7,
        "h_over_r": 0.5001,
        "baseline_rate_tc_ha_yr": -6.5877,
        "c_2015_tc_ha": 69.158,
        "c_2019_tc_ha": 42.807,
        "note": "Окно найдено перебором по продукту ESA CCI Biomass v7.0. Базовая линия выведена по формуле кейса из собственной истории 2015→2019, как её выводит сервис для любого загруженного контура."
      },
      "geometry": {
        "type": "Polygon",
        "coordinates": [
          [
            [
              41.949333,
              59.223111
            ],
            [
              41.977778,
              59.223111
            ],
            [
              41.977778,
              59.251556
            ],
            [
              41.949333,
              59.251556
            ],
            [
              41.949333,
              59.223111
            ]
          ]
        ]
      }
    }
  ]
}