{
  "type": "FeatureCollection",
  "features": [
    {
      "type": "Feature",
      "properties": {
        "name": "Пример 6: потенциальных единиц 19129",
        "area_ha": 513.51,
        "units": 19129,
        "r_tco2e": 41245.1,
        "h_over_r": 0.5543,
        "baseline_rate_tc_ha_yr": -5.7764,
        "c_2015_tc_ha": 70.742,
        "c_2019_tc_ha": 47.637,
        "note": "Окно найдено перебором по продукту ESA CCI Biomass v7.0. Базовая линия выведена по формуле кейса из собственной истории 2015→2019, как её выводит сервис для любого загруженного контура."
      },
      "geometry": {
        "type": "Polygon",
        "coordinates": [
          [
            [
              41.928,
              59.287111
            ],
            [
              41.956444,
              59.287111
            ],
            [
              41.956444,
              59.315556
            ],
            [
              41.928,
              59.315556
            ],
            [
              41.928,
              59.287111
            ]
          ]
        ]
      }
    }
  ]
}