{
  "type": "FeatureCollection",
  "features": [
    {
      "type": "Feature",
      "properties": {
        "name": "Пример 3: потенциальных единиц 26667",
        "area_ha": 530.67,
        "units": 26667,
        "r_tco2e": 44839.3,
        "h_over_r": 0.4003,
        "baseline_rate_tc_ha_yr": -3.3453,
        "c_2015_tc_ha": 31.055,
        "c_2019_tc_ha": 17.674,
        "note": "Окно найдено перебором по продукту ESA CCI Biomass v7.0. Базовая линия выведена по формуле кейса из собственной истории 2015→2019, как её выводит сервис для любого загруженного контура."
      },
      "geometry": {
        "type": "Polygon",
        "coordinates": [
          [
            [
              41.757333,
              58.135111
            ],
            [
              41.785778,
              58.135111
            ],
            [
              41.785778,
              58.163556
            ],
            [
              41.757333,
              58.163556
            ],
            [
              41.757333,
              58.135111
            ]
          ]
        ]
      }
    }
  ]
}