{
  "type": "FeatureCollection",
  "features": [
    {
      "type": "Feature",
      "properties": {
        "name": "Пример 1: потенциальных единиц 29438",
        "area_ha": 513.51,
        "units": 29438,
        "r_tco2e": 52070.4,
        "h_over_r": 0.4349,
        "baseline_rate_tc_ha_yr": -7.2595,
        "c_2015_tc_ha": 69.04,
        "c_2019_tc_ha": 40.002,
        "note": "Окно найдено перебором по продукту ESA CCI Biomass v7.0. Базовая линия выведена по формуле кейса из собственной истории 2015→2019, как её выводит сервис для любого загруженного контура."
      },
      "geometry": {
        "type": "Polygon",
        "coordinates": [
          [
            [
              41.906667,
              59.287111
            ],
            [
              41.935111,
              59.287111
            ],
            [
              41.935111,
              59.315556
            ],
            [
              41.906667,
              59.315556
            ],
            [
              41.906667,
              59.287111
            ]
          ]
        ]
      }
    }
  ]
}