{
  "type": "FeatureCollection",
  "features": [
    {
      "type": "Feature",
      "id": "RU_TVER_01",
      "properties": {
        "aoi_id": "RU_TVER_01",
        "name": "Тверская область контрольный участок",
        "region": "Тверская область",
        "analysis_start_year": 2019,
        "analysis_end_year": 2024,
        "area_ha": 1750.4731,
        "selection_role": "контрольный участок",
        "project_status": "исследовательский участок",
        "stand_age": null,
        "dominant_species": null,
        "site_class": null,
        "bbox_west": 32.91,
        "bbox_south": 56.59,
        "bbox_east": 32.974,
        "bbox_north": 56.63,
        "baseline_id": "HIST-AGB-2015-2019-v1"
      },
      "geometry": {
        "type": "Polygon",
        "coordinates": [
          [
            [
              32.974,
              56.59
            ],
            [
              32.974,
              56.63
            ],
            [
              32.91,
              56.63
            ],
            [
              32.91,
              56.59
            ],
            [
              32.974,
              56.59
            ]
          ]
        ]
      }
    },
    {
      "type": "Feature",
      "id": "RU_VOLOGDA_02",
      "properties": {
        "aoi_id": "RU_VOLOGDA_02",
        "name": "Вологодская область мозаика потерь покрова",
        "region": "Вологодская область",
        "analysis_start_year": 2019,
        "analysis_end_year": 2024,
        "area_ha": 1617.7075,
        "selection_role": "недавние потери покрова с неустановленной причиной",
        "project_status": "исследовательский участок",
        "stand_age": null,
        "dominant_species": null,
        "site_class": null,
        "bbox_west": 40.66975,
        "bbox_south": 59.43,
        "bbox_east": 40.73375,
        "bbox_north": 59.47,
        "baseline_id": "HIST-AGB-2015-2019-v1"
      },
      "geometry": {
        "type": "Polygon",
        "coordinates": [
          [
            [
              40.73375,
              59.43
            ],
            [
              40.73375,
              59.47
            ],
            [
              40.66975,
              59.47
            ],
            [
              40.66975,
              59.43
            ],
            [
              40.73375,
              59.43
            ]
          ]
        ]
      }
    },
    {
      "type": "Feature",
      "id": "RU_MORDOVIA_03",
      "properties": {
        "aoi_id": "RU_MORDOVIA_03",
        "name": "Мордовия пожар и повторные нарушения",
        "region": "Республика Мордовия",
        "analysis_start_year": 2019,
        "analysis_end_year": 2024,
        "area_ha": 1829.5984,
        "selection_role": "повторные нарушения и пожар",
        "project_status": "исследовательский участок",
        "stand_age": null,
        "dominant_species": null,
        "site_class": null,
        "bbox_west": 43.17,
        "bbox_south": 54.85025,
        "bbox_east": 43.234,
        "bbox_north": 54.89025,
        "baseline_id": "HIST-AGB-2015-2019-v1"
      },
      "geometry": {
        "type": "Polygon",
        "coordinates": [
          [
            [
              43.234,
              54.85025
            ],
            [
              43.234,
              54.89025
            ],
            [
              43.17,
              54.89025
            ],
            [
              43.17,
              54.85025
            ],
            [
              43.234,
              54.85025
            ]
          ]
        ]
      }
    },
    {
      "type": "Feature",
      "id": "RU_MORDOVIA_04",
      "properties": {
        "aoi_id": "RU_MORDOVIA_04",
        "name": "Мордовия ранняя потеря покрова и пожар 2021 года",
        "region": "Республика Мордовия",
        "analysis_start_year": 2019,
        "analysis_end_year": 2024,
        "area_ha": 1832.7456,
        "selection_role": "ранние потери покрова и последующий пожар",
        "project_status": "исследовательский участок",
        "stand_age": null,
        "dominant_species": null,
        "site_class": null,
        "bbox_west": 43.18,
        "bbox_south": 54.78025,
        "bbox_east": 43.244,
        "bbox_north": 54.82025,
        "baseline_id": "HIST-AGB-2015-2019-v1"
      },
      "geometry": {
        "type": "Polygon",
        "coordinates": [
          [
            [
              43.244,
              54.78025
            ],
            [
              43.244,
              54.82025
            ],
            [
              43.18,
              54.82025
            ],
            [
              43.18,
              54.78025
            ],
            [
              43.244,
              54.78025
            ]
          ]
        ]
      }
    },
    {
      "type": "Feature",
      "id": "RU_TVER_05",
      "properties": {
        "aoi_id": "RU_TVER_05",
        "name": "Тверская область стабильный массив",
        "region": "Тверская область",
        "analysis_start_year": 2019,
        "analysis_end_year": 2024,
        "area_ha": 1750.4839,
        "selection_role": "контроль без нарушений",
        "project_status": "исследовательский участок",
        "stand_age": null,
        "dominant_species": null,
        "site_class": null,
        "bbox_west": 32.84,
        "bbox_south": 56.59,
        "bbox_east": 32.904,
        "bbox_north": 56.63,
        "baseline_id": "HIST-AGB-2015-2019-v1"
      },
      "geometry": {
        "type": "Polygon",
        "coordinates": [
          [
            [
              32.904,
              56.59
            ],
            [
              32.904,
              56.63
            ],
            [
              32.84,
              56.63
            ],
            [
              32.84,
              56.59
            ],
            [
              32.904,
              56.59
            ]
          ]
        ]
      }
    },
    {
      "type": "Feature",
      "id": "RU_TVER_06",
      "properties": {
        "aoi_id": "RU_TVER_06",
        "name": "Тверская область зона активного прироста",
        "region": "Тверская область",
        "analysis_start_year": 2019,
        "analysis_end_year": 2024,
        "area_ha": 1748.1845,
        "selection_role": "участок с накоплением запаса",
        "project_status": "исследовательский участок",
        "stand_age": null,
        "dominant_species": null,
        "site_class": null,
        "bbox_west": 32.91,
        "bbox_south": 56.64,
        "bbox_east": 32.974,
        "bbox_north": 56.68,
        "baseline_id": "HIST-AGB-2015-2019-v1"
      },
      "geometry": {
        "type": "Polygon",
        "coordinates": [
          [
            [
              32.974,
              56.64
            ],
            [
              32.974,
              56.68
            ],
            [
              32.91,
              56.68
            ],
            [
              32.91,
              56.64
            ],
            [
              32.974,
              56.64
            ]
          ]
        ]
      }
    },
    {
      "type": "Feature",
      "id": "RU_VOLOGDA_07",
      "properties": {
        "aoi_id": "RU_VOLOGDA_07",
        "name": "Вологодская область сплошная вырубка",
        "region": "Вологодская область",
        "analysis_start_year": 2019,
        "analysis_end_year": 2024,
        "area_ha": 1617.7139,
        "selection_role": "сплошная вырубка с четкой границей",
        "project_status": "исследовательский участок",
        "stand_age": null,
        "dominant_species": null,
        "site_class": null,
        "bbox_west": 40.6,
        "bbox_south": 59.43,
        "bbox_east": 40.664,
        "bbox_north": 59.47,
        "baseline_id": "HIST-AGB-2015-2019-v1"
      },
      "geometry": {
        "type": "Polygon",
        "coordinates": [
          [
            [
              40.664,
              59.43
            ],
            [
              40.664,
              59.47
            ],
            [
              40.6,
              59.47
            ],
            [
              40.6,
              59.43
            ],
            [
              40.664,
              59.43
            ]
          ]
        ]
      }
    },
    {
      "type": "Feature",
      "id": "RU_VOLOGDA_08",
      "properties": {
        "aoi_id": "RU_VOLOGDA_08",
        "name": "Вологодская область рассеянные потери",
        "region": "Вологодская область",
        "analysis_start_year": 2019,
        "analysis_end_year": 2024,
        "area_ha": 1615.338,
        "selection_role": "мозаика мелких потерь",
        "project_status": "исследовательский участок",
        "stand_age": null,
        "dominant_species": null,
        "site_class": null,
        "bbox_west": 40.66975,
        "bbox_south": 59.48,
        "bbox_east": 40.73375,
        "bbox_north": 59.52,
        "baseline_id": "HIST-AGB-2015-2019-v1"
      },
      "geometry": {
        "type": "Polygon",
        "coordinates": [
          [
            [
              40.67,
              59.48
            ],
            [
              40.734,
              59.48
            ],
            [
              40.734,
              59.52
            ],
            [
              40.67,
              59.52
            ],
            [
              40.67,
              59.48
            ]
          ]
        ]
      }
    },
    {
      "type": "Feature",
      "id": "RU_VOLOGDA_09",
      "properties": {
        "aoi_id": "RU_VOLOGDA_09",
        "name": "Вологодская область зона лесовосстановления",
        "region": "Вологодская область",
        "analysis_start_year": 2019,
        "analysis_end_year": 2024,
        "area_ha": 1617.7139,
        "selection_role": "лесовосстановление и подрост",
        "project_status": "исследовательский участок",
        "stand_age": null,
        "dominant_species": null,
        "site_class": null,
        "bbox_west": 40.74,
        "bbox_south": 59.43,
        "bbox_east": 40.804,
        "bbox_north": 59.47,
        "baseline_id": "HIST-AGB-2015-2019-v1"
      },
      "geometry": {
        "type": "Polygon",
        "coordinates": [
          [
            [
              40.804,
              59.43
            ],
            [
              40.804,
              59.47
            ],
            [
              40.74,
              59.47
            ],
            [
              40.74,
              59.43
            ],
            [
              40.804,
              59.43
            ]
          ]
        ]
      }
    },
    {
      "type": "Feature",
      "id": "RU_MORDOVIA_10",
      "properties": {
        "aoi_id": "RU_MORDOVIA_10",
        "name": "Мордовия очаг гари 2021",
        "region": "Республика Мордовия",
        "analysis_start_year": 2019,
        "analysis_end_year": 2024,
        "area_ha": 1829.6118,
        "selection_role": "гарь с подтверждением MODIS",
        "project_status": "исследовательский участок",
        "stand_age": null,
        "dominant_species": null,
        "site_class": null,
        "bbox_west": 43.1,
        "bbox_south": 54.85025,
        "bbox_east": 43.164,
        "bbox_north": 54.89025,
        "baseline_id": "HIST-AGB-2015-2019-v1"
      },
      "geometry": {
        "type": "Polygon",
        "coordinates": [
          [
            [
              43.164,
              54.85025
            ],
            [
              43.164,
              54.89025
            ],
            [
              43.1,
              54.89025
            ],
            [
              43.1,
              54.85025
            ],
            [
              43.164,
              54.85025
            ]
          ]
        ]
      }
    },
    {
      "type": "Feature",
      "id": "RU_MORDOVIA_11",
      "properties": {
        "aoi_id": "RU_MORDOVIA_11",
        "name": "Мордовия деградирующий древостой",
        "region": "Республика Мордовия",
        "analysis_start_year": 2019,
        "analysis_end_year": 2024,
        "area_ha": 1829.6118,
        "selection_role": "падающая историческая динамика (g < 0)",
        "project_status": "исследовательский участок",
        "stand_age": null,
        "dominant_species": null,
        "site_class": null,
        "bbox_west": 43.24,
        "bbox_south": 54.85025,
        "bbox_east": 43.304,
        "bbox_north": 54.89025,
        "baseline_id": "HIST-AGB-2015-2019-v1"
      },
      "geometry": {
        "type": "Polygon",
        "coordinates": [
          [
            [
              43.304,
              54.85025
            ],
            [
              43.304,
              54.89025
            ],
            [
              43.24,
              54.89025
            ],
            [
              43.24,
              54.85025
            ],
            [
              43.304,
              54.85025
            ]
          ]
        ]
      }
    },
    {
      "type": "Feature",
      "id": "RU_MORDOVIA_12",
      "properties": {
        "aoi_id": "RU_MORDOVIA_12",
        "name": "Мордовия южный кластер нарушений",
        "region": "Республика Мордовия",
        "analysis_start_year": 2019,
        "analysis_end_year": 2024,
        "area_ha": 1829.6118,
        "selection_role": "ранние потери покрова и повторные нарушения",
        "project_status": "исследовательский участок",
        "stand_age": null,
        "dominant_species": null,
        "site_class": null,
        "bbox_west": 43.1,
        "bbox_south": 54.78025,
        "bbox_east": 43.164,
        "bbox_north": 54.82025,
        "baseline_id": "HIST-AGB-2015-2019-v1"
      },
      "geometry": {
        "type": "Polygon",
        "coordinates": [
          [
            [
              43.31,
              54.85025
            ],
            [
              43.374,
              54.85025
            ],
            [
              43.374,
              54.89025
            ],
            [
              43.31,
              54.89025
            ],
            [
              43.31,
              54.85025
            ]
          ]
        ]
      }
    }
  ]
}